{
  "type": "FeatureCollection",
  "features": [
    {
      "type": "Feature",
      "properties": {
        "norad_id": 34540,
        "name": "IRIDIUM 33 DEB",
        "group": "iridium-33-debris",
        "lat": 47.8660917450469,
        "lon": -46.68677490451042,
        "alt_km": 646.4575476214332,
        "timestamp": "2025-12-09T04:51:47.876859+00:00",
        "meta_object_name": "IRIDIUM 33 DEB",
        "meta_object_id": "1997-051JH",
        "meta_epoch": "2025-12-08T16:26:16.783008",
        "meta_mean_motion": 14.75185439,
        "meta_eccentricity": 0.0015702,
        "meta_inclination": 86.3111,
        "meta_ra_of_asc_node": 309.4602,
        "meta_arg_of_pericenter": 173.5881,
        "meta_mean_anomaly": 6.9774,
        "meta_ephemeris_type": 0,
        "meta_classification_type": "U",
        "meta_norad_cat_id": 34540,
        "meta_element_set_no": 999,
        "meta_rev_at_epoch": 88961,
        "meta_bstar": 0.0023969,
        "meta_mean_motion_dot": 0.00016265,
        "meta_mean_motion_ddot": 0,
        "tle_line1": "1 34540U 97051JH  25342.68491647  .00016265  00000+0  23969-2 0  9999",
        "tle_line2": "2 34540  86.3111 309.4602 0015702 173.5881   6.9774 14.75185439889612"
      },
      "geometry": {
        "type": "Point",
        "coordinates": [
          -46.68677490451042,
          47.8660917450469
        ]
      }
    },
    {
      "type": "Feature",
      "properties": {
        "norad_id": 34648,
        "name": "IRIDIUM 33 DEB",
        "group": "iridium-33-debris",
        "lat": -73.64144690750577,
        "lon": -89.04115407429265,
        "alt_km": 740.1990195172348,
        "timestamp": "2025-12-09T04:51:47.876869+00:00",
        "meta_object_name": "IRIDIUM 33 DEB",
        "meta_object_id": "1997-051JZ",
        "meta_epoch": "2025-12-08T20:41:39.003936",
        "meta_mean_motion": 14.11300262,
        "meta_eccentricity": 0.0183955,
        "meta_inclination": 86.3913,
        "meta_ra_of_asc_node": 283.5113,
        "meta_arg_of_pericenter": 310.9542,
        "meta_mean_anomaly": 47.5843,
        "meta_ephemeris_type": 0,
        "meta_classification_type": "U",
        "meta_norad_cat_id": 34648,
        "meta_element_set_no": 999,
        "meta_rev_at_epoch": 84906,
        "meta_bstar": 0.013206,
        "meta_mean_motion_dot": 0.00028062,
        "meta_mean_motion_ddot": 0,
        "tle_line1": "1 34648U 97051JZ  25342.86225699  .00028062  00000+0  13206-1 0  9990",
        "tle_line2": "2 34648  86.3913 283.5113 0183955 310.9542  47.5843 14.11300262849063"
      },
      "geometry": {
        "type": "Point",
        "coordinates": [
          -89.04115407429265,
          -73.64144690750577
        ]
      }
    },
    {
      "type": "Feature",
      "properties": {
        "norad_id": 34651,
        "name": "IRIDIUM 33 DEB",
        "group": "iridium-33-debris",
        "lat": 19.209746880622763,
        "lon": -39.21530233916713,
        "alt_km": 746.1374254727061,
        "timestamp": "2025-12-09T04:51:47.876880+00:00",
        "meta_object_name": "IRIDIUM 33 DEB",
        "meta_object_id": "1997-051KC",
        "meta_epoch": "2025-12-08T11:15:25.709184",
        "meta_mean_motion": 14.25701829,
        "meta_eccentricity": 0.01419793,
        "meta_inclination": 86.2851,
        "meta_ra_of_asc_node": 142.3937,
        "meta_arg_of_pericenter": 217.4974,
        "meta_mean_anomaly": 141.625,
        "meta_ephemeris_type": 0,
        "meta_classification_type": "U",
        "meta_norad_cat_id": 34651,
        "meta_element_set_no": 999,
        "meta_rev_at_epoch": 85835,
        "meta_bstar": 0.0043129114,
        "meta_mean_motion_dot": 0.00011398,
        "meta_mean_motion_ddot": 0,
        "tle_line1": "1 34651U 97051KC  25342.46904756  .00011398  00000+0  43129-2 0  9990",
        "tle_line2": "2 34651  86.2851 142.3937 0141979 217.4974 141.6250 14.25701829858352"
      },
      "geometry": {
        "type": "Point",
        "coordinates": [
          -39.21530233916713,
          19.209746880622763
        ]
      }
    },
    {
      "type": "Feature",
      "properties": {
        "norad_id": 34652,
        "name": "IRIDIUM 33 DEB",
        "group": "iridium-33-debris",
        "lat": 67.56446215847015,
        "lon": 152.6356360455916,
        "alt_km": 697.7890090532437,
        "timestamp": "2025-12-09T04:51:47.876890+00:00",
        "meta_object_name": "IRIDIUM 33 DEB",
        "meta_object_id": "1997-051KD",
        "meta_epoch": "2025-12-08T10:58:52.274208",
        "meta_mean_motion": 14.61994532,
        "meta_eccentricity": 0.00263276,
        "meta_inclination": 86.3309,
        "meta_ra_of_asc_node": 341.9078,
        "meta_arg_of_pericenter": 313.8102,
        "meta_mean_anomaly": 199.1921,
        "meta_ephemeris_type": 0,
        "meta_classification_type": "U",
        "meta_norad_cat_id": 34652,
        "meta_element_set_no": 999,
        "meta_rev_at_epoch": 88421,
        "meta_bstar": 0.0013948529,
        "meta_mean_motion_dot": 7.048e-05,
        "meta_mean_motion_ddot": 0,
        "tle_line1": "1 34652U 97051KD  25342.45754947  .00007048  00000+0  13949-2 0  9999",
        "tle_line2": "2 34652  86.3309 341.9078 0026327 313.8102 199.1921 14.61994532884210"
      },
      "geometry": {
        "type": "Point",
        "coordinates": [
          152.6356360455916,
          67.56446215847015
        ]
      }
    },
    {
      "type": "Feature",
      "properties": {
        "norad_id": 34690,
        "name": "IRIDIUM 33 DEB",
        "group": "iridium-33-debris",
        "lat": 62.96584404637496,
        "lon": 45.659053457535926,
        "alt_km": 695.6886686623939,
        "timestamp": "2025-12-09T04:51:47.876900+00:00",
        "meta_object_name": "IRIDIUM 33 DEB",
        "meta_object_id": "1997-051KM",
        "meta_epoch": "2025-12-08T10:30:30.417984",
        "meta_mean_motion": 14.55072153,
        "meta_eccentricity": 0.0011347,
        "meta_inclination": 86.3781,
        "meta_ra_of_asc_node": 38.8609,
        "meta_arg_of_pericenter": 42.3651,
        "meta_mean_anomaly": 337.2533,
        "meta_ephemeris_type": 0,
        "meta_classification_type": "U",
        "meta_norad_cat_id": 34690,
        "meta_element_set_no": 999,
        "meta_rev_at_epoch": 88032,
        "meta_bstar": 0.00077031918,
        "meta_mean_motion_dot": 3.344e-05,
        "meta_mean_motion_ddot": 0,
        "tle_line1": "1 34690U 97051KM  25342.43785206  .00003344  00000+0  77032-3 0  9990",
        "tle_line2": "2 34690  86.3781  38.8609 0011347  42.3651 337.2533 14.55072153880328"
      },
      "geometry": {
        "type": "Point",
        "coordinates": [
          45.659053457535926,
          62.96584404637496
        ]
      }
    },
    {
      "type": "Feature",
      "properties": {
        "norad_id": 34693,
        "name": "IRIDIUM 33 DEB",
        "group": "iridium-33-debris",
        "lat": -84.84982645554165,
        "lon": -100.21095772855578,
        "alt_km": 501.6002215351409,
        "timestamp": "2025-12-09T04:51:47.876910+00:00",
        "meta_object_name": "IRIDIUM 33 DEB",
        "meta_object_id": "1997-051KQ",
        "meta_epoch": "2025-12-08T15:50:05.258976",
        "meta_mean_motion": 15.26461537,
        "meta_eccentricity": 0.0014846,
        "meta_inclination": 86.3061,
        "meta_ra_of_asc_node": 305.849,
        "meta_arg_of_pericenter": 59.4216,
        "meta_mean_anomaly": 113.0405,
        "meta_ephemeris_type": 0,
        "meta_classification_type": "U",
        "meta_norad_cat_id": 34693,
        "meta_element_set_no": 999,
        "meta_rev_at_epoch": 88852,
        "meta_bstar": 0.0056203,
        "meta_mean_motion_dot": 0.00149619,
        "meta_mean_motion_ddot": 0,
        "tle_line1": "1 34693U 97051KQ  25342.65978309  .00149619  00000+0  56203-2 0  9997",
        "tle_line2": "2 34693  86.3061 305.8490 0014846  59.4216 113.0405 15.26461537888525"
      },
      "geometry": {
        "type": "Point",
        "coordinates": [
          -100.21095772855578,
          -84.84982645554165
        ]
      }
    },
    {
      "type": "Feature",
      "properties": {
        "norad_id": 34696,
        "name": "IRIDIUM 33 DEB",
        "group": "iridium-33-debris",
        "lat": 74.86124536676894,
        "lon": 43.44731942516108,
        "alt_km": 683.0679229457601,
        "timestamp": "2025-12-09T04:51:47.876920+00:00",
        "meta_object_name": "IRIDIUM 33 DEB",
        "meta_object_id": "1997-051KT",
        "meta_epoch": "2025-12-08T14:27:39.651264",
        "meta_mean_motion": 14.64750758,
        "meta_eccentricity": 0.0074318,
        "meta_inclination": 86.1849,
        "meta_ra_of_asc_node": 29.4472,
        "meta_arg_of_pericenter": 181.4638,
        "meta_mean_anomaly": 332.3745,
        "meta_ephemeris_type": 0,
        "meta_classification_type": "U",
        "meta_norad_cat_id": 34696,
        "meta_element_set_no": 999,
        "meta_rev_at_epoch": 86612,
        "meta_bstar": 0.0061608,
        "meta_mean_motion_dot": 0.00034329,
        "meta_mean_motion_ddot": 0,
        "tle_line1": "1 34696U 97051KT  25342.60254226  .00034329  00000+0  61608-2 0  9996",
        "tle_line2": "2 34696  86.1849  29.4472 0074318 181.4638 332.3745 14.64750758866125"
      },
      "geometry": {
        "type": "Point",
        "coordinates": [
          43.44731942516108,
          74.86124536676894
        ]
      }
    }
  ]
}